{
  "type": "FeatureCollection",
  "features": [
    {
      "type": "Feature",
      "properties": {
        "norad_id": 37781,
        "name": "HAIYANG-2A",
        "group": "resource",
        "lat": -73.75338474223393,
        "lon": 29.14194607067727,
        "alt_km": 976.3227826562834,
        "timestamp": "2025-12-19T22:41:52.035928+00:00",
        "meta_object_name": "HAIYANG-2A",
        "meta_object_id": "2011-043A",
        "meta_epoch": "2025-12-19T17:50:40.079616",
        "meta_mean_motion": 13.78835869,
        "meta_eccentricity": 0.0001635,
        "meta_inclination": 99.3371,
        "meta_ra_of_asc_node": 354.5702,
        "meta_arg_of_pericenter": 73.8656,
        "meta_mean_anomaly": 286.2676,
        "meta_ephemeris_type": 0,
        "meta_classification_type": "U",
        "meta_norad_cat_id": 37781,
        "meta_element_set_no": 999,
        "meta_rev_at_epoch": 72195,
        "meta_bstar": 0.00011102,
        "meta_mean_motion_dot": 6.9e-07,
        "meta_mean_motion_ddot": 0,
        "tle_line1": "1 37781U 11043A   25353.74351944  .00000069  00000+0  11102-3 0  9992",
        "tle_line2": "2 37781  99.3371 354.5702 0001635  73.8656 286.2676 13.78835869721955"
      },
      "geometry": {
        "type": "Point",
        "coordinates": [
          29.14194607067727,
          -73.75338474223393
        ]
      }
    },
    {
      "type": "Feature",
      "properties": {
        "norad_id": 37791,
        "name": "RASAT",
        "group": "resource",
        "lat": -7.301263654947663,
        "lon": -97.94417089227592,
        "alt_km": 683.9278554996927,
        "timestamp": "2025-12-19T22:41:52.035938+00:00",
        "meta_object_name": "RASAT",
        "meta_object_id": "2011-044D",
        "meta_epoch": "2025-12-19T19:00:49.794336",
        "meta_mean_motion": 14.67920072,
        "meta_eccentricity": 0.0021606,
        "meta_inclination": 98.0651,
        "meta_ra_of_asc_node": 82.9456,
        "meta_arg_of_pericenter": 43.7074,
        "meta_mean_anomaly": 52.7242,
        "meta_ephemeris_type": 0,
        "meta_classification_type": "U",
        "meta_norad_cat_id": 37791,
        "meta_element_set_no": 999,
        "meta_rev_at_epoch": 76686,
        "meta_bstar": 0.00014246,
        "meta_mean_motion_dot": 7.69e-06,
        "meta_mean_motion_ddot": 0,
        "tle_line1": "1 37791U 11044D   25353.79224299  .00000769  00000+0  14246-3 0  9990",
        "tle_line2": "2 37791  98.0651  82.9456 0021606  43.7074  52.7242 14.67920072766865"
      },
      "geometry": {
        "type": "Point",
        "coordinates": [
          -97.94417089227592,
          -7.301263654947663
        ]
      }
    },
    {
      "type": "Feature",
      "properties": {
        "norad_id": 37841,
        "name": "SRMSAT",
        "group": "resource",
        "lat": 15.30086830829827,
        "lon": 113.2149688068573,
        "alt_km": 841.4820468574444,
        "timestamp": "2025-12-19T22:41:52.035949+00:00",
        "meta_object_name": "SRMSAT",
        "meta_object_id": "2011-058D",
        "meta_epoch": "2025-12-19T14:40:57.595008",
        "meta_mean_motion": 14.11513672,
        "meta_eccentricity": 0.0011928,
        "meta_inclination": 19.9723,
        "meta_ra_of_asc_node": 66.3596,
        "meta_arg_of_pericenter": 29.0252,
        "meta_mean_anomaly": 120.8933,
        "meta_ephemeris_type": 0,
        "meta_classification_type": "U",
        "meta_norad_cat_id": 37841,
        "meta_element_set_no": 999,
        "meta_rev_at_epoch": 73241,
        "meta_bstar": 6.4258e-05,
        "meta_mean_motion_dot": 3.83e-06,
        "meta_mean_motion_ddot": 0,
        "tle_line1": "1 37841U 11058D   25353.61177772  .00000383  00000+0  64258-4 0  9996",
        "tle_line2": "2 37841  19.9723  66.3596 0011928  29.0252 120.8933 14.11513672732416"
      },
      "geometry": {
        "type": "Point",
        "coordinates": [
          113.2149688068573,
          15.30086830829827
        ]
      }
    },
    {
      "type": "Feature",
      "properties": {
        "norad_id": 38012,
        "name": "PLEIADES 1A",
        "group": "resource",
        "lat": 77.01021199251808,
        "lon": -74.8076068237418,
        "alt_km": 689.7994313302206,
        "timestamp": "2025-12-19T22:41:52.035959+00:00",
        "meta_object_name": "PLEIADES 1A",
        "meta_object_id": "2011-076F",
        "meta_epoch": "2025-12-19T18:01:08.415840",
        "meta_mean_motion": 14.58568105,
        "meta_eccentricity": 0.0001178,
        "meta_inclination": 98.1823,
        "meta_ra_of_asc_node": 66.4116,
        "meta_arg_of_pericenter": 73.9496,
        "meta_mean_anomaly": 83.1026,
        "meta_ephemeris_type": 0,
        "meta_classification_type": "U",
        "meta_norad_cat_id": 38012,
        "meta_element_set_no": 999,
        "meta_rev_at_epoch": 74583,
        "meta_bstar": 0.00010988,
        "meta_mean_motion_dot": 4.65e-06,
        "meta_mean_motion_ddot": 0,
        "tle_line1": "1 38012U 11076F   25353.75079185  .00000465  00000+0  10988-3 0  9992",
        "tle_line2": "2 38012  98.1823  66.4116 0001178  73.9496  83.1026 14.58568105745836"
      },
      "geometry": {
        "type": "Point",
        "coordinates": [
          -74.8076068237418,
          77.01021199251808
        ]
      }
    },
    {
      "type": "Feature",
      "properties": {
        "norad_id": 38038,
        "name": "ZIYUAN 1-02C (ZY 1-02C)",
        "group": "resource",
        "lat": -15.723316084763296,
        "lon": -122.56671345359892,
        "alt_km": 768.5641407440498,
        "timestamp": "2025-12-19T22:41:52.035969+00:00",
        "meta_object_name": "ZIYUAN 1-02C (ZY 1-02C)",
        "meta_object_id": "2011-079A",
        "meta_epoch": "2025-12-19T19:05:56.378688",
        "meta_mean_motion": 14.3801954,
        "meta_eccentricity": 0.0007414,
        "meta_inclination": 98.4331,
        "meta_ra_of_asc_node": 59.6798,
        "meta_arg_of_pericenter": 119.6654,
        "meta_mean_anomaly": 20.2125,
        "meta_ephemeris_type": 0,
        "meta_classification_type": "U",
        "meta_norad_cat_id": 38038,
        "meta_element_set_no": 999,
        "meta_rev_at_epoch": 73342,
        "meta_bstar": 0.00013574,
        "meta_mean_motion_dot": 3.68e-06,
        "meta_mean_motion_ddot": 0,
        "tle_line1": "1 38038U 11079A   25353.79579142  .00000368  00000+0  13574-3 0  9991",
        "tle_line2": "2 38038  98.4331  59.6798 0007414 119.6654  20.2125 14.38019540733420"
      },
      "geometry": {
        "type": "Point",
        "coordinates": [
          -122.56671345359892,
          -15.723316084763296
        ]
      }
    },
    {
      "type": "Feature",
      "properties": {
        "norad_id": 38338,
        "name": "ARIRANG-3 (KOMPSAT-3)",
        "group": "resource",
        "lat": 76.46505847161976,
        "lon": -88.91918135639774,
        "alt_km": 682.4118138168033,
        "timestamp": "2025-12-19T22:41:52.035979+00:00",
        "meta_object_name": "ARIRANG-3 (KOMPSAT-3)",
        "meta_object_id": "2012-025B",
        "meta_epoch": "2025-12-19T19:03:02.279232",
        "meta_mean_motion": 14.61721307,
        "meta_eccentricity": 0.0004932,
        "meta_inclination": 98.3332,
        "meta_ra_of_asc_node": 308.4366,
        "meta_arg_of_pericenter": 314.3041,
        "meta_mean_anomaly": 45.7755,
        "meta_ephemeris_type": 0,
        "meta_classification_type": "U",
        "meta_norad_cat_id": 38338,
        "meta_element_set_no": 999,
        "meta_rev_at_epoch": 72513,
        "meta_bstar": 8.7892e-05,
        "meta_mean_motion_dot": 3.89e-06,
        "meta_mean_motion_ddot": 0,
        "tle_line1": "1 38338U 12025B   25353.79377638  .00000389  00000+0  87892-4 0  9990",
        "tle_line2": "2 38338  98.3332 308.4366 0004932 314.3041  45.7755 14.61721307725132"
      },
      "geometry": {
        "type": "Point",
        "coordinates": [
          -88.91918135639774,
          76.46505847161976
        ]
      }
    },
    {
      "type": "Feature",
      "properties": {
        "norad_id": 38709,
        "name": "EXACTVIEW-1 (ADS-1B)",
        "group": "resource",
        "lat": -23.59615619486386,
        "lon": -81.46656016627801,
        "alt_km": 818.9005980139646,
        "timestamp": "2025-12-19T22:41:52.035989+00:00",
        "meta_object_name": "EXACTVIEW-1 (ADS-1B)",
        "meta_object_id": "2012-039C",
        "meta_epoch": "2025-12-19T06:34:34.635072",
        "meta_mean_motion": 14.24910488,
        "meta_eccentricity": 0.0010338,
        "meta_inclination": 98.9638,
        "meta_ra_of_asc_node": 101.8012,
        "meta_arg_of_pericenter": 334.9028,
        "meta_mean_anomaly": 25.1646,
        "meta_ephemeris_type": 0,
        "meta_classification_type": "U",
        "meta_norad_cat_id": 38709,
        "meta_element_set_no": 999,
        "meta_rev_at_epoch": 69708,
        "meta_bstar": 6.0813e-05,
        "meta_mean_motion_dot": 9.6e-07,
        "meta_mean_motion_ddot": 0,
        "tle_line1": "1 38709U 12039C   25353.27401198  .00000096  00000+0  60813-4 0  9998",
        "tle_line2": "2 38709  98.9638 101.8012 0010338 334.9028  25.1646 14.24910488697084"
      },
      "geometry": {
        "type": "Point",
        "coordinates": [
          -81.46656016627801,
          -23.59615619486386
        ]
      }
    }
  ]
}